$$SOE
2460154.500000000, A.D. 2023-Jul-29 00:00:00.0000, 4.403304173626873E+08, -2.360379476281583E+08, 1.149318589722168E+08,
2460161.500000000, A.D. 2023-Aug-05 00:00:00.0000, 4.433247254179547E+08, -2.268475173330467E+08, 1.140597652683747E+08,
2460168.500000000, A.D. 2023-Aug-12 00:00:00.0000, 4.461575973910977E+08, -2.175744440587633E+08, 1.131461282001022E+08,
2460175.500000000, A.D. 2023-Aug-19 00:00:00.0000, 4.488262961662685E+08, -2.082212740036201E+08, 1.121908483301915E+08,
2460182.500000000, A.D. 2023-Aug-26 00:00:00.0000, 4.513280937869234E+08, -1.987906401206999E+08, 1.111938410244160E+08,
2460189.500000000, A.D. 2023-Sep-02 00:00:00.0000, 4.536602737243566E+08, -1.892852639097484E+08, 1.101550371418074E+08,
2460196.500000000, A.D. 2023-Sep-09 00:00:00.0000, 4.558201332921097E+08, -1.797079573003285E+08, 1.090743837332197E+08,
2460203.500000000, A.D. 2023-Sep-16 00:00:00.0000, 4.578049863786094E+08, -1.700616246769188E+08, 1.079518447273996E+08,
2460210.500000000, A.D. 2023-Sep-23 00:00:00.0000, 4.596121669188067E+08, -1.603492647511599E+08, 1.067874015894639E+08,
2460217.500000000, A.D. 2023-Sep-30 00:00:00.0000, 4.612390327706145E+08, -1.505739710822830E+08, 1.055810540805563E+08,
2460224.500000000, A.D. 2023-Oct-07 00:00:00.0000, 4.626829676485065E+08, -1.407389317813734E+08, 1.043328212911417E+08,
2460231.500000000, A.D. 2023-Oct-14 00:00:00.0000, 4.639413821586068E+08, -1.308474317060246E+08, 1.030427425819743E+08,
2460238.500000000, A.D. 2023-Oct-21 00:00:00.0000, 4.650117171664696E+08, -1.209028555343515E+08, 1.017108782667037E+08,
2460245.500000000, A.D. 2023-Oct-28 00:00:00.0000, 4.658914480760259E+08, -1.109086894486571E+08, 1.003373103506830E+08,
2460252.500000000, A.D. 2023-Nov-04 00:00:00.0000, 4.665780887726306E+08, -1.008685221893001E+08, 9.892214337699139E+07,
2460259.500000000, A.D. 2023-Nov-11 00:00:00.0000, 4.670691954101654E+08, -9.078604606829101E+07, 9.746550531343380E+07,
2460266.500000000, A.D. 2023-Nov-18 00:00:00.0000, 4.673623702635138E+08, -8.066505799587160E+07, 9.596754845394692E+07,
2460273.500000000, A.D. 2023-Nov-25 00:00:00.0000, 4.674552657205718E+08, -7.050946048578832E+07, 9.442845032819611E+07,
2460280.500000000, A.D. 2023-Dec-02 00:00:00.0000, 4.673455884428454E+08, -6.032326263818410E+07, 9.284841461429510E+07,
2460287.500000000, A.D. 2023-Dec-09 00:00:00.0000, 4.670311037726996E+08, -5.011058114636247E+07, 9.122767204086220E+07,
2460294.500000000, A.D. 2023-Dec-16 00:00:00.0000, 4.665096406738997E+08, -3.987564130181651E+07, 8.956648125072756E+07,
2460301.500000000, A.D. 2023-Dec-23 00:00:00.0000, 4.657790975515221E+08, -2.962277729592543E+07, 8.786512964760804E+07,
2460308.500000000, A.D. 2023-Dec-30 00:00:00.0000, 4.648374476087629E+08, -1.935643075347493E+07, 8.612393443177909E+07,
2460315.500000000, A.D. 2024-Jan-06 00:00:00.0000, 4.636827419669374E+08, -9.081149843854461E+06, 8.434324379223722E+07,
2460322.500000000, A.D. 2024-Jan-13 00:00:00.0000, 4.623131137176504E+08, 1.198409237073641E+06, 8.252343781339990E+07,
2460329.500000000, A.D. 2024-Jan-20 00:00:00.0000, 4.607267841241148E+08, 1.147748151451841E+07, 8.066492923200648E+07,
2460336.500000000, A.D. 2024-Jan-27 00:00:00.0000, 4.589220689361159E+08, 2.175119388039514E+07, 7.876816427967770E+07,
2460343.500000000, A.D. 2024-Feb-03 00:00:00.0000, 4.568973843829063E+08, 3.201456620474582E+07, 7.683362356899317E+07,
2460350.500000000, A.D. 2024-Feb-10 00:00:00.0000, 4.546512531126348E+08, 4.226251263807320E+07, 7.486182296964754E+07,
2460357.500000000, A.D. 2024-Feb-17 00:00:00.0000, 4.521823102067289E+08, 5.248984312882496E+07, 7.285331445813373E+07,
2460364.500000000, A.D. 2024-Feb-24 00:00:00.0000, 4.494893092934151E+08, 6.269126518714785E+07, 7.080868693417414E+07,
2460371.500000000, A.D. 2024-Mar-02 00:00:00.0000, 4.465711287765891E+08, 7.286138587858614E+07, 6.872856699369696E+07,
2460378.500000000, A.D. 2024-Mar-09 00:00:00.0000, 4.434267783042951E+08, 8.299471400058079E+07, 6.661361963543683E+07,
2460385.500000000, A.D. 2024-Mar-16 00:00:00.0000, 4.400554058554698E+08, 9.308566265380609E+07, 6.446454887551576E+07,
2460392.500000000, A.D. 2024-Mar-23 00:00:00.0000, 4.364563053215527E+08, 1.031285533319959E+08, 6.228209836406678E+07,
2460399.500000000, A.D. 2024-Mar-30 00:00:00.0000, 4.326289223212901E+08, 1.131176215192777E+08, 6.006705220177113E+07,
2460406.500000000, A.D. 2024-Apr-06 00:00:00.0000, 4.285728584859583E+08, 1.230470204413940E+08, 5.782023565275370E+07,
2460413.500000000, A.D. 2024-Apr-13 00:00:00.0000, 4.242878777438143E+08, 1.329108238177032E+08, 5.554251549038170E+07,
2460420.500000000, A.D. 2024-Apr-20 00:00:00.0000, 4.197739136252096E+08, 1.427030303005401E+08, 5.323480027535728E+07,
2460427.500000000, A.D. 2024-Apr-27 00:00:00.0000, 4.150310760439441E+08, 1.524175690494527E+08, 5.089804065294202E+07,
2460434.500000000, A.D. 2024-May-04 00:00:00.0000, 4.100596576136023E+08, 1.620483057435942E+08, 4.853322959716482E+07,
2460441.500000000, A.D. 2024-May-11 00:00:00.0000, 4.048601397053072E+08, 1.715890489353405E+08, 4.614140256499024E+07,
2460448.500000000, A.D. 2024-May-18 00:00:00.0000, 3.994331982947624E+08, 1.810335567705634E+08, 4.372363754803200E+07,
2460455.500000000, A.D. 2024-May-25 00:00:00.0000, 3.937797095883754E+08, 1.903755440713566E+08, 4.128105501295143E+07,
2460462.500000000, A.D. 2024-Jun-01 00:00:00.0000, 3.879007554539089E+08, 1.996086897250238E+08, 3.881481771515497E+07,
2460469.500000000, A.D. 2024-Jun-08 00:00:00.0000, 3.817976288684939E+08, 2.087266443544007E+08, 3.632613035660399E+07,
2460476.500000000, A.D. 2024-Jun-15 00:00:00.0000, 3.754718397494043E+08, 2.177230388076534E+08, 3.381623909074742E+07,
2460483.500000000, A.D. 2024-Jun-22 00:00:00.0000, 3.689251201245334E+08, 2.265914946312003E+08, 3.128643105753179E+07,
2460490.500000000, A.D. 2024-Jun-29 00:00:00.0000, 3.621594264820436E+08, 2.353256346930146E+08, 2.873803398989622E+07,
2460497.500000000, A.D. 2024-Jul-06 00:00:00.0000, 3.551769419093016E+08, 2.439190914702635E+08, 2.617241544355297E+07,
2460504.500000000, A.D. 2024-Jul-13 00:00:00.0000, 3.479800799334089E+08, 2.523655158035611E+08, 2.359098169787762E+07,
2460511.500000000, A.D. 2024-Jul-20 00:00:00.0000, 3.405714880382510E+08, 2.606585872419219E+08, 2.099517660032804E+07,
2460518.500000000, A.D. 2024-Jul-27 00:00:00.0000, 3.329540501645283E+08, 2.687920249921606E+08, 1.838648033363220E+07,
2460525.500000000, A.D. 2024-Aug-03 00:00:00.0000, 3.251308884301705E+08, 2.767595990674631E+08, 1.576640804831208E+07,
2460532.500000000, A.D. 2024-Aug-10 00:00:00.0000, 3.171053642030182E+08, 2.845551415966558E+08, 1.313650834393963E+07,
2460539.500000000, A.D. 2024-Aug-17 00:00:00.0000, 3.088810785410888E+08, 2.921725582783803E+08, 1.049836159635113E+07,
2460546.500000000, A.D. 2024-Aug-24 00:00:00.0000, 3.004618719985312E+08, 2.996058399171086E+08, 7.853578127145231E+06,
2460553.500000000, A.D. 2024-Aug-31 00:00:00.0000, 2.918518238859881E+08, 3.068490739357294E+08, 5.203796201531157E+06,
2460560.500000000, A.D. 2024-Sep-07 00:00:00.0000, 2.830552513276823E+08, 3.138964559445568E+08, 2.550679834011152E+06,
2460567.500000000, A.D. 2024-Sep-14 00:00:00.0000, 2.740767081813130E+08, 3.207423023120916E+08, -1.040835210149735E+05,
2460574.500000000, A.D. 2024-Sep-21 00:00:00.0000, 2.649209817738132E+08, 3.273810640947782E+08, -2.758785169234693E+06,
2460581.500000000, A.D. 2024-Sep-28 00:00:00.0000, 2.555930869503118E+08, 3.338073390446196E+08, -5.411697479546651E+06,
2460588.500000000, A.D. 2024-Oct-05 00:00:00.0000, 2.460982611010218E+08, 3.400158816436027E+08, -8.061076619550765E+06,
2460595.500000000, A.D. 2024-Oct-12 00:00:00.0000, 2.364419598044268E+08, 3.460016140862074E+08, -1.070516543896516E+07,
2460602.500000000, A.D. 2024-Oct-19 00:00:00.0000, 2.266298513369081E+08, 3.517596378793312E+08, -1.334219635323647E+07,
2460609.500000000, A.D. 2024-Oct-26 00:00:00.0000, 2.166678100234364E+08, 3.572852451996688E+08, -1.597039427944276E+07,
2460616.500000000, A.D. 2024-Nov-02 00:00:00.0000, 2.065619086998616E+08, 3.625739298019761E+08, -1.858797964889625E+07,
2460623.500000000, A.D. 2024-Nov-09 00:00:00.0000, 1.963184104022438E+08, 3.676213974411361E+08, -2.119317149141066E+07,
2460630.500000000, A.D. 2024-Nov-16 00:00:00.0000, 1.859437593333260E+08, 3.724235757513599E+08, -2.378419058050223E+07,
2460637.500000000, A.D. 2024-Nov-23 00:00:00.0000, 1.754445711823246E+08, 3.769766234771891E+08, -2.635926263396585E+07,
2460644.500000000, A.D. 2024-Nov-30 00:00:00.0000, 1.648276230403057E+08, 3.812769389607236E+08, -2.891662157770358E+07,
2460651.500000000, A.D. 2024-Dec-07 00:00:00.0000, 1.540998433695738E+08, 3.853211682566941E+08, -3.145451286172739E+07,
2460658.500000000, A.D. 2024-Dec-14 00:00:00.0000, 1.432683013832188E+08, 3.891062140536399E+08, -3.397119664981915E+07,
2460665.500000000, A.D. 2024-Dec-21 00:00:00.0000, 1.323401935638057E+08, 3.926292441156849E+08, -3.646495075538649E+07,
2460672.500000000, A.D. 2024-Dec-28 00:00:00.0000, 1.213228293428904E+08, 3.958876962415006E+08, -3.893407373051438E+07,
2460679.500000000, A.D. 2025-Jan-04 00:00:00.0000, 1.102236185972004E+08, 3.988792820899611E+08, -4.137688813761915E+07,
2460686.500000000, A.D. 2025-Jan-11 00:00:00.0000, 9.905005920396207E+07, 4.016019915047099E+08, -4.379174368641043E+07,
2460693.500000000, A.D. 2025-Jan-18 00:00:00.0000, 8.780972380224887E+07, 4.040540963933957E+08, -4.617702021186796E+07,
2460700.500000000, A.D. 2025-Jan-25 00:00:00.0000, 7.651024606832713E+07, 4.062341536670462E+08, -4.853113053906853E+07,
2460707.500000000, A.D. 2025-Feb-01 00:00:00.0000, 6.515930675894234E+07, 4.081410071957728E+08, -5.085252323976344E+07,
2460714.500000000, A.D. 2025-Feb-08 00:00:00.0000, 5.376461964516514E+07, 4.097737887946965E+08, -5.313968527052006E+07,
2460721.500000000, A.D. 2025-Feb-15 00:00:00.0000, 4.233391743051647E+07, 4.111319182225915E+08, -5.539114448444682E+07,
$$EOE